{"type": "FeatureCollection", "name": "Norala barangays", "features": [{"type": "Feature", "properties": {"NAME_3": "BS Aquino Jr.", "Total_Repo": 8, "Affected_A": 14.3, "Severity": 30.13, "Frequency_N": 0.111111, "Area_N": 0.153707, "Damage_N": 0.191341, "IPI": 0.152053, "Boundary_Source": "GADM 4.1 (indicative administrative boundary)"}, "geometry": {"type": "MultiPolygon", "coordinates": [[[[124.6773, 6.5121], [124.6933, 6.5181], [124.6955, 6.522], [124.6979, 6.5212], [124.7041, 6.5114], [124.7038, 6.5039], [124.7023, 6.5022], [124.6836, 6.5034], [124.6773, 6.5121]]]]}}, {"type": "Feature", "properties": {"NAME_3": "Dumaguil", "Total_Repo": 0, "Affected_A": 0.0, "Severity": 0.0, "Frequency_N": 0.0, "Area_N": 0.0, "Damage_N": 0.0, "IPI": 0.0, "Boundary_Source": "GADM 4.1 (indicative administrative boundary)"}, "geometry": {"type": "MultiPolygon", "coordinates": [[[[124.6949, 6.5247], [124.6874, 6.5329], [124.6841, 6.5314], [124.6827, 6.5341], [124.6789, 6.5351], [124.6772, 6.5384], [124.6773, 6.5465], [124.6643, 6.5503], [124.6577, 6.557], [124.6552, 6.5658], [124.6351, 6.5816], [124.6399, 6.5887], [124.6843, 6.5802], [124.6882, 6.5665], [124.6874, 6.557], [124.6904, 6.5495], [124.6902, 6.5461], [124.7007, 6.5306], [124.6972, 6.5285], [124.6949, 6.5247]]]]}}, {"type": "Feature", "properties": {"NAME_3": "Esperanza", "Total_Repo": 6, "Affected_A": 5.8, "Severity": 18.33, "Frequency_N": 0.055556, "Area_N": 0.0, "Damage_N": 0.0, "IPI": 0.018519, "Boundary_Source": "GADM 4.1 (indicative administrative boundary)"}, "geometry": {"type": "MultiPolygon", "coordinates": [[[[124.6799, 6.4861], [124.68, 6.4822], [124.6905, 6.4814], [124.6899, 6.4682], [124.6644, 6.4683], [124.6645, 6.4817], [124.6685, 6.4818], [124.6688, 6.4859], [124.6799, 6.4861]]]]}}, {"type": "Feature", "properties": {"NAME_3": "Kibid", "Total_Repo": 9, "Affected_A": 9.83, "Severity": 33.33, "Frequency_N": 0.138889, "Area_N": 0.072875, "Damage_N": 0.24323, "IPI": 0.151665, "Boundary_Source": "GADM 4.1 (indicative administrative boundary)"}, "geometry": {"type": "MultiPolygon", "coordinates": [[[[124.6955, 6.522], [124.6933, 6.5181], [124.6773, 6.5121], [124.676, 6.5142], [124.6698, 6.5155], [124.6677, 6.5182], [124.6739, 6.5253], [124.6716, 6.5315], [124.6742, 6.532], [124.6745, 6.5409], [124.6719, 6.5458], [124.6728, 6.5471], [124.6773, 6.5465], [124.6772, 6.5384], [124.6789, 6.5351], [124.6827, 6.5341], [124.6841, 6.5314], [124.6874, 6.5329], [124.6913, 6.5301], [124.6955, 6.522]]]]}}, {"type": "Feature", "properties": {"NAME_3": "Lapuz", "Total_Repo": 5, "Affected_A": 6.6, "Severity": 64.0, "Frequency_N": 0.027778, "Area_N": 0.014467, "Damage_N": 0.740555, "IPI": 0.260933, "Boundary_Source": "GADM 4.1 (indicative administrative boundary)"}, "geometry": {"type": "MultiPolygon", "coordinates": [[[[124.6111, 6.5104], [124.6406, 6.5111], [124.641, 6.4908], [124.6176, 6.4899], [124.6108, 6.4876], [124.61, 6.4913], [124.6124, 6.5029], [124.6111, 6.5104]]]]}}, {"type": "Feature", "properties": {"NAME_3": "Liberty", "Total_Repo": 0, "Affected_A": 0.0, "Severity": 0.0, "Frequency_N": 0.0, "Area_N": 0.0, "Damage_N": 0.0, "IPI": 0.0, "Boundary_Source": "GADM 4.1 (indicative administrative boundary)"}, "geometry": {"type": "MultiPolygon", "coordinates": [[[[124.6406, 6.5111], [124.6111, 6.5104], [124.6059, 6.5126], [124.6036, 6.5139], [124.6044, 6.5263], [124.6081, 6.5322], [124.6418, 6.5287], [124.6406, 6.5111]]]]}}, {"type": "Feature", "properties": {"NAME_3": "Lopez Jaena", "Total_Repo": 0, "Affected_A": 0.0, "Severity": 0.0, "Frequency_N": 0.0, "Area_N": 0.0, "Damage_N": 0.0, "IPI": 0.0, "Boundary_Source": "GADM 4.1 (indicative administrative boundary)"}, "geometry": {"type": "MultiPolygon", "coordinates": [[[[124.6899, 6.4682], [124.6905, 6.4814], [124.68, 6.4822], [124.6807, 6.4991], [124.7016, 6.4979], [124.7037, 6.4944], [124.7027, 6.4638], [124.6899, 6.464], [124.6899, 6.4682]]]]}}, {"type": "Feature", "properties": {"NAME_3": "Matapol", "Total_Repo": 9, "Affected_A": 19.81, "Severity": 80.0, "Frequency_N": 0.138889, "Area_N": 0.253345, "Damage_N": 1.0, "IPI": 0.464078, "Boundary_Source": "GADM 4.1 (indicative administrative boundary)"}, "geometry": {"type": "MultiPolygon", "coordinates": [[[[124.6351, 6.5816], [124.6552, 6.5658], [124.6561, 6.5602], [124.6524, 6.5574], [124.6542, 6.5539], [124.6519, 6.55], [124.6551, 6.5461], [124.6506, 6.5458], [124.6507, 6.5417], [124.6163, 6.5476], [124.6237, 6.5653], [124.6351, 6.5816]]]]}}, {"type": "Feature", "properties": {"NAME_3": "Poblacion", "Total_Repo": 4, "Affected_A": 6.3, "Severity": 52.5, "Frequency_N": 0.0, "Area_N": 0.009042, "Damage_N": 0.554078, "IPI": 0.187707, "Boundary_Source": "GADM 4.1 (indicative administrative boundary)"}, "geometry": {"type": "MultiPolygon", "coordinates": [[[[124.6773, 6.5121], [124.6836, 6.5034], [124.7023, 6.5022], [124.7016, 6.4979], [124.6807, 6.4991], [124.6799, 6.4861], [124.6688, 6.4859], [124.6685, 6.4818], [124.6405, 6.4818], [124.6416, 6.5251], [124.6539, 6.5256], [124.6666, 6.521], [124.6698, 6.5155], [124.676, 6.5142], [124.6773, 6.5121]]]]}}, {"type": "Feature", "properties": {"NAME_3": "Puti", "Total_Repo": 6, "Affected_A": 7.63, "Severity": 58.33, "Frequency_N": 0.055556, "Area_N": 0.033092, "Damage_N": 0.648614, "IPI": 0.245754, "Boundary_Source": "GADM 4.1 (indicative administrative boundary)"}, "geometry": {"type": "MultiPolygon", "coordinates": [[[[124.7509, 6.4971], [124.7457, 6.4968], [124.7395, 6.4857], [124.7375, 6.4872], [124.7351, 6.4852], [124.7334, 6.4878], [124.7292, 6.4889], [124.7253, 6.4865], [124.7155, 6.4906], [124.7093, 6.4908], [124.702, 6.4966], [124.7041, 6.5114], [124.7002, 6.5181], [124.7055, 6.5178], [124.7091, 6.5147], [124.7171, 6.5154], [124.7189, 6.5174], [124.7212, 6.5163], [124.7255, 6.5177], [124.7279, 6.5227], [124.7396, 6.5141], [124.7446, 6.5121], [124.7468, 6.5075], [124.7506, 6.5047], [124.7506, 6.5025], [124.7532, 6.5017], [124.7509, 6.4971]]]]}}, {"type": "Feature", "properties": {"NAME_3": "San Jose", "Total_Repo": 0, "Affected_A": 0.0, "Severity": 0.0, "Frequency_N": 0.0, "Area_N": 0.0, "Damage_N": 0.0, "IPI": 0.0, "Boundary_Source": "GADM 4.1 (indicative administrative boundary)"}, "geometry": {"type": "MultiPolygon", "coordinates": [[[[124.6416, 6.5251], [124.6418, 6.5287], [124.6081, 6.5322], [124.6131, 6.5384], [124.6163, 6.5476], [124.6507, 6.5417], [124.6521, 6.5382], [124.6496, 6.5318], [124.6539, 6.5256], [124.6416, 6.5251]]]]}}, {"type": "Feature", "properties": {"NAME_3": "San Miguel", "Total_Repo": 0, "Affected_A": 0.0, "Severity": 0.0, "Frequency_N": 0.0, "Area_N": 0.0, "Damage_N": 0.0, "IPI": 0.0, "Boundary_Source": "GADM 4.1 (indicative administrative boundary)"}, "geometry": {"type": "MultiPolygon", "coordinates": [[[[124.7395, 6.4857], [124.728, 6.4638], [124.7027, 6.4638], [124.7037, 6.4944], [124.707, 6.4935], [124.7093, 6.4908], [124.7155, 6.4906], [124.7253, 6.4865], [124.7292, 6.4889], [124.7334, 6.4878], [124.7351, 6.4852], [124.7375, 6.4872], [124.7395, 6.4857]]]]}}, {"type": "Feature", "properties": {"NAME_3": "Simsiman", "Total_Repo": 40, "Affected_A": 61.1, "Severity": 51.62, "Frequency_N": 1.0, "Area_N": 1.0, "Damage_N": 0.539809, "IPI": 0.846603, "Boundary_Source": "GADM 4.1 (indicative administrative boundary)"}, "geometry": {"type": "MultiPolygon", "coordinates": [[[[124.6561, 6.5602], [124.6643, 6.5503], [124.6728, 6.5471], [124.6719, 6.5458], [124.6745, 6.5409], [124.6742, 6.532], [124.6716, 6.5315], [124.6739, 6.5253], [124.6677, 6.5182], [124.6666, 6.521], [124.6539, 6.5256], [124.6496, 6.5318], [124.6521, 6.5382], [124.6506, 6.5458], [124.6551, 6.5461], [124.6519, 6.55], [124.6542, 6.5539], [124.6524, 6.5574], [124.6561, 6.5602]]]]}}, {"type": "Feature", "properties": {"NAME_3": "Tinago", "Total_Repo": 0, "Affected_A": 0.0, "Severity": 0.0, "Frequency_N": 0.0, "Area_N": 0.0, "Damage_N": 0.0, "IPI": 0.0, "Boundary_Source": "GADM 4.1 (indicative administrative boundary)"}, "geometry": {"type": "MultiPolygon", "coordinates": [[[[124.7002, 6.5181], [124.6955, 6.522], [124.6949, 6.5247], [124.6972, 6.5285], [124.7007, 6.5306], [124.6902, 6.5461], [124.6904, 6.5495], [124.6874, 6.557], [124.6882, 6.5665], [124.6945, 6.5709], [124.7068, 6.5726], [124.7109, 6.576], [124.7153, 6.572], [124.7182, 6.5604], [124.7171, 6.5589], [124.7223, 6.5474], [124.7218, 6.5431], [124.7257, 6.5429], [124.7274, 6.5375], [124.7293, 6.5381], [124.7315, 6.5318], [124.7361, 6.5275], [124.7403, 6.5146], [124.7426, 6.5139], [124.7396, 6.5141], [124.7279, 6.5227], [124.7255, 6.5177], [124.7212, 6.5163], [124.7189, 6.5174], [124.7171, 6.5154], [124.7091, 6.5147], [124.7055, 6.5178], [124.7002, 6.5181]]]]}}]}